[{"uid":"12293","name":"Pizzaria Al Capone","amenity":"fast_food","id":"344369368","lon":"-43.1994214","lat":"-22.9577648","version":"3","visible":"true","timestamp":"2012-10-18T16:51:34Z","cuisine":"pizza","changeset":"13546858","user":"Nighto"},{"uid":"12293","addr:street":"Rua Visconde de Caravelas","name":"Botequim Informal","amenity":"pub","source":"survey","id":"557557663","addr:housenumber":"123","lon":"-43.1960086","lat":"-22.9573133","version":"2","visible":"true","timestamp":"2013-05-27T22:18:38Z","changeset":"16316796","user":"Nighto"},{"IPP:CODATIVIDA":"0","IPP:DESIGNACAO":"0204502","IPP:COD_INEP":"33063265","phone":"+55-21-22860449","uid":"12293","addr:street":"Rua Visconde Silva","name":"Ciep Presidente Agostinho Neto","amenity":"school","source":"IPP","note":"S\/N","IPP:CHAVE":"10809","IPP:CODBAIRRO":"021","id":"823940149","lon":"-43.1997653","IPP:COD_SMA":"010809","IPP:ENDNOVO":"http:\/\/webapp.sme.rio.rj.gov.br\/jcartela\/publico\/pesquisa.do?idSetor=10809&cmd=load","lat":"-22.9591800","version":"2","visible":"true","timestamp":"2013-03-30T21:17:56Z","IPP:FLG_VALIDA":"S","changeset":"15556649","user":"Nighto","IPP:BAIRRO":"Humait\u00e1","IPP:CRE":"02"},{"phone":"+55-21-25381234","uid":"12293","addr:street":"Rua Humait\u00e1","name":"1\u00ba Grupamento de Bombeiro Militar","amenity":"fire_station","source":"IPP","id":"823957126","addr:housenumber":"126","lon":"-43.1992943","website":"http:\/\/www.bm3.cbmerj.rj.gov.br\/modules.php?name=Content&pa=showpage&pid=71","lat":"-22.9574759","IPP:Codigo":"20","version":"3","visible":"true","timestamp":"2012-10-18T16:51:35Z","changeset":"13546858","user":"Nighto"},{"uid":"481662","id":"1209136137","lon":"-43.1998388","highway":"turning_circle","lat":"-22.9618704","version":"2","visible":"true","timestamp":"2013-03-24T04:53:27Z","changeset":"15473639","user":"Geaquinto"},{"description":"Live rock'n'roll.","phone":"02132390735","uid":"475565","addr:street":"Rua Pinheiro Guimar\u00e3es","name":"Saloon 79","amenity":"pub","id":"1369518865","addr:housenumber":"79","lon":"-43.1945990","website":"http:\/\/www.saloon79.com.br","lat":"-22.9585520","version":"1","visible":"true","timestamp":"2011-07-21T23:08:37Z","changeset":"8793784","user":"EduardoAFVieira"},{"uid":"628450","name":"\u00c0 Mineira","amenity":"restaurant","id":"1677062473","lon":"-43.1971991","lat":"-22.9581325","version":"1","visible":"true","timestamp":"2012-03-16T17:27:24Z","cuisine":"regional","changeset":"11000460","user":"NCaminada"},{"bicycle":"yes","uid":"481662","id":"1837842791","lon":"-43.2003037","highway":"traffic_signals","lat":"-22.9591337","version":"2","visible":"true","crossing":"traffic_signals","timestamp":"2013-03-24T04:53:27Z","changeset":"15473639","user":"Geaquinto"},{"uid":"12293","name":"Grandeza de Botafogo","amenity":"fast_food","source":"survey","id":"2307116245","lon":"-43.1916585","lat":"-22.9578896","version":"1","visible":"true","timestamp":"2013-05-16T23:43:38Z","changeset":"16160498","user":"Nighto"},{"uid":"12293","name":"Flora Viva","amenity":"pub","source":"survey","id":"2307116351","lon":"-43.1919374","lat":"-22.9579233","version":"1","visible":"true","timestamp":"2013-05-16T23:43:40Z","changeset":"16160498","user":"Nighto"},{"uid":"12293","addr:street":"Rua Humait\u00e1","name":"Subway","amenity":"fast_food","id":"344024328","addr:housenumber":"134","lon":"-43.1992931","website":"http:\/\/www.subway.com.br","lat":"-22.9576210","version":"2","visible":"true","timestamp":"2012-10-18T16:51:35Z","changeset":"13546858","user":"Nighto"},{"uid":"481662","id":"1981146794","lon":"-43.1974249","highway":"crossing","lat":"-22.9545901","version":"2","visible":"true","crossing":"traffic_signals","timestamp":"2013-03-24T05:13:24Z","changeset":"15473639","user":"Geaquinto"},{"uid":"12293","name":"ampm","shop":"convenience","source":"survey","id":"2316528888","lon":"-43.1917507","lat":"-22.9583703","version":"1","visible":"true","timestamp":"2013-05-22T22:40:48Z","changeset":"16245593","user":"Nighto"},{"uid":"12293","bench":"yes","source":"survey","shelter":"yes","id":"2316528786","lon":"-43.1989552","highway":"bus_stop","lat":"-22.9588259","tactile_paving":"no","version":"1","visible":"true","timestamp":"2013-05-22T22:40:47Z","changeset":"16245593","user":"Nighto"},{"uid":"12293","name":"Ipiranga","amenity":"fuel","source":"survey","id":"2316528973","lon":"-43.1916715","lat":"-22.9582054","version":"1","visible":"true","timestamp":"2013-05-22T22:40:49Z","changeset":"16245593","user":"Nighto"},{"phone":"+55 21 2286-3391","uid":"1539105","addr:street":"Rua Visconde de Caravelas","name":"Botequim","amenity":"restaurant","id":"1674570306","addr:housenumber":"184","lon":"-43.1976171","website":"http:\/\/www.botequimrestaurante.com.br\/","lat":"-22.9575100","addr:city":"Rio de Janeiro","version":"3","visible":"true","timestamp":"2013-12-13T20:49:18Z","cuisine":"regional","changeset":"19439595","user":"sboiteux"},{"uid":"12293","name":"Encontro dos Amigos","amenity":"pub","source":"survey","id":"2322537089","lon":"-43.1963202","lat":"-22.9574015","version":"1","visible":"true","timestamp":"2013-05-27T22:18:39Z","changeset":"16316796","user":"Nighto"},{"uid":"12293","source":"survey","id":"2322537090","lon":"-43.1961964","highway":"stop","lat":"-22.9571371","version":"1","visible":"true","timestamp":"2013-05-27T22:18:40Z","changeset":"16316796","user":"Nighto"},{"uid":"12293","shop":"convenience","source":"survey","id":"2322551297","lon":"-43.1948599","lat":"-22.9576039","version":"1","visible":"true","timestamp":"2013-05-27T22:41:44Z","changeset":"16316969","user":"Nighto"},{"uid":"12293","name":"Do Conde","shop":"bakery","source":"survey","id":"2322551300","lon":"-43.1945145","lat":"-22.9578404","version":"1","visible":"true","timestamp":"2013-05-27T22:41:45Z","changeset":"16316969","user":"Nighto"},{"uid":"12293","bench":"no","source":"survey","shelter":"no","id":"2322551305","lon":"-43.1944229","highway":"bus_stop","lat":"-22.9573173","tactile_paving":"no","version":"1","visible":"true","timestamp":"2013-05-27T22:41:45Z","changeset":"16316969","user":"Nighto"},{"wheelchair":"yes","uid":"12293","source":"survey","id":"2322568810","lon":"-43.1965494","highway":"crossing","lat":"-22.9558386","version":"1","visible":"true","crossing":"traffic_signals","timestamp":"2013-05-27T23:12:36Z","changeset":"16317151","user":"Nighto"},{"uid":"149876","amenity":"pharmacy","id":"344024295","lon":"-43.1990785","lat":"-22.9573286","version":"2","visible":"true","timestamp":"2012-12-02T21:53:01Z","changeset":"14131818","user":"dbusse"},{"uid":"463507","name":"Posto Gnomo","amenity":"fuel","id":"1977817992","lon":"-43.1946863","lat":"-22.9574908","version":"5","visible":"true","timestamp":"2014-01-08T22:25:58Z","changeset":"19891375","user":"naoliv"},{"uid":"267599","name":"Confeitaria Uni\u00e3o","amenity":"cafe","id":"2083473607","lon":"-43.1996148","lat":"-22.9581372","version":"1","visible":"true","timestamp":"2012-12-26T16:06:28Z","changeset":"14414224","user":"Luis Bahiana"},{"uid":"12293","source":"survey","id":"142812656","lon":"-43.1990344","highway":"crossing","lat":"-22.9577343","version":"6","visible":"true","crossing":"traffic_signals","timestamp":"2013-06-10T20:54:34Z","changeset":"16502122","user":"Nighto"},{"uid":"12293","source":"survey","id":"2217941631","lon":"-43.1989897","highway":"traffic_signals","lat":"-22.9577656","version":"2","visible":"true","timestamp":"2013-06-10T20:54:33Z","changeset":"16502122","user":"Nighto"},{"uid":"12293","source":"survey","id":"2339797790","lon":"-43.1991477","highway":"traffic_signals","lat":"-22.9577502","version":"1","visible":"true","timestamp":"2013-06-10T20:54:35Z","changeset":"16502122","user":"Nighto"},{"uid":"12293","source":"survey","id":"2339797992","lon":"-43.1990540","highway":"crossing","lat":"-22.9576382","version":"1","visible":"true","crossing":"traffic_signals","timestamp":"2013-06-10T20:54:39Z","changeset":"16502122","user":"Nighto"},{"phone":"+55-21-25391136","uid":"12293","name":"Evolution","shop":"car","source":"survey","id":"2011451530","lon":"-43.1987642","website":"http:\/\/evolutionrio.com.br","lat":"-22.9575460","version":"2","visible":"true","timestamp":"2013-06-10T21:02:31Z","changeset":"16502198","user":"Nighto"},{"uid":"12293","source":"survey","id":"2339797815","lon":"-43.1990927","highway":"traffic_signals","lat":"-22.9574205","version":"1","visible":"true","timestamp":"2013-06-10T20:54:37Z","changeset":"16502122","user":"Nighto"},{"uid":"12293","name":"Ita\u00fa","amenity":"bank","id":"2339803445","lon":"-43.1985987","lat":"-22.9572785","version":"1","visible":"true","timestamp":"2013-06-10T21:02:41Z","changeset":"16502198","user":"Nighto","atm":"yes"},{"uid":"12293","source":"survey","id":"2339797915","lon":"-43.1991879","highway":"crossing","lat":"-22.9575589","version":"1","visible":"true","crossing":"traffic_signals","timestamp":"2013-06-10T20:54:38Z","changeset":"16502122","user":"Nighto"},{"uid":"481662","id":"2217942280","lon":"-43.1973948","highway":"traffic_signals","lat":"-22.9545480","version":"1","visible":"true","timestamp":"2013-03-24T05:13:24Z","changeset":"15473639","user":"Geaquinto"},{"uid":"12293","source":"survey","id":"2217944237","lon":"-43.1962886","highway":"traffic_signals","lat":"-22.9527459","version":"2","visible":"true","timestamp":"2013-05-27T22:55:10Z","changeset":"16317059","user":"Nighto"},{"uid":"12293","source":"survey","id":"2217944239","lon":"-43.1963558","highway":"crossing","lat":"-22.9527556","version":"3","visible":"true","crossing":"traffic_signals","timestamp":"2013-05-27T22:55:11Z","changeset":"16317059","user":"Nighto"},{"uid":"12293","id":"2427530928","lon":"-43.1915591","highway":"traffic_signals","lat":"-22.9580909","version":"1","visible":"true","timestamp":"2013-08-22T04:03:12Z","changeset":"17449518","user":"Nighto"},{"uid":"12293","id":"2427530929","lon":"-43.1914934","highway":"crossing","lat":"-22.9580934","version":"1","visible":"true","crossing":"traffic_signals","timestamp":"2013-08-22T04:03:12Z","changeset":"17449518","user":"Nighto"},{"uid":"12293","id":"2427530930","lon":"-43.1915071","highway":"crossing","lat":"-22.9581891","version":"1","visible":"true","crossing":"traffic_signals","timestamp":"2013-08-22T04:03:12Z","changeset":"17449518","user":"Nighto"},{"uid":"12293","id":"2427530931","lon":"-43.1914495","highway":"traffic_signals","lat":"-22.9579786","version":"1","visible":"true","timestamp":"2013-08-22T04:03:12Z","changeset":"17449518","user":"Nighto"},{"uid":"12293","id":"2427530932","lon":"-43.1914347","highway":"crossing","lat":"-22.9580193","version":"1","visible":"true","crossing":"traffic_signals","timestamp":"2013-08-22T04:03:12Z","changeset":"17449518","user":"Nighto"},{"uid":"12293","id":"1906560786","lon":"-43.1915447","highway":"traffic_signals","lat":"-22.9581611","version":"2","visible":"true","timestamp":"2013-08-22T04:03:13Z","changeset":"17449518","user":"Nighto"},{"uid":"12293","name":"Superfor","shop":"car","source":"survey","brand":"Ford","id":"2439413294","lon":"-43.1914632","lat":"-22.9587697","version":"1","visible":"true","timestamp":"2013-08-30T17:24:22Z","changeset":"17592848","user":"Nighto"},{"uid":"12293","name":"Posto Gasolina Real Grandeza","amenity":"fuel","source":"survey","id":"2439413362","lon":"-43.1918863","operator":"Mega","lat":"-22.9574193","version":"1","visible":"true","timestamp":"2013-08-30T17:24:26Z","changeset":"17592848","user":"Nighto"},{"uid":"12293","bench":"no","shelter":"no","id":"2641105249","lon":"-43.1998409","highway":"bus_stop","lat":"-22.9590162","tactile_paving":"no","version":"1","visible":"true","timestamp":"2014-01-28T17:27:46Z","changeset":"20250619","user":"Nighto"},{"uid":"267599","natural":"tree","denotation":"cluster","id":"2649584349","lon":"-43.1997990","lat":"-22.9613866","version":"1","visible":"true","timestamp":"2014-02-02T11:53:25Z","changeset":"20332484","user":"Luis Bahiana"},{"uid":"267599","natural":"tree","denotation":"cluster","id":"2649584352","lon":"-43.1997476","lat":"-22.9613350","version":"1","visible":"true","timestamp":"2014-02-02T11:53:25Z","changeset":"20332484","user":"Luis Bahiana"},{"uid":"267599","id":"2671713939","lon":"-43.1989360","lat":"-22.9577121","version":"2","visible":"true","crossing":"traffic_signals","timestamp":"2014-02-14T17:42:00Z","changeset":"20563161","user":"Luis Bahiana"},{"uid":"267599","id":"2671722843","lon":"-43.1989102","highway":"crossing","lat":"-22.9576294","version":"1","visible":"true","crossing":"traffic_signals","timestamp":"2014-02-14T17:42:00Z","changeset":"20563161","user":"Luis Bahiana"},{"fee":"no","capacity":"5","uid":"12293","amenity":"bicycle_parking","id":"2960482950","lon":"-43.1990911","lat":"-22.9578599","version":"1","visible":"true","timestamp":"2014-07-13T01:49:19Z","changeset":"24111367","user":"Nighto","covered":"no","bicycle_parking":"rack"},{"uid":"12293","name":"Droganews","amenity":"pharmacy","id":"2960482951","lon":"-43.1991206","lat":"-22.9578920","version":"1","visible":"true","timestamp":"2014-07-13T01:49:19Z","changeset":"24111367","user":"Nighto"},{"maxspeed":"60","uid":"69210","id":"3026245109","lon":"-43.2005941","highway":"speed_camera","lat":"-22.9590296","version":"1","visible":"true","timestamp":"2014-08-19T00:16:21Z","changeset":"24847031","user":"M\u00e1rcio V\u00edn\u00edcius Pinheiro"},{"uid":"12293","amenity":"fast_food","source":"survey","id":"2417237022","lon":"-43.1988855","lat":"-22.9572714","version":"2","visible":"true","timestamp":"2014-10-25T01:10:59Z","changeset":"26312617","user":"Nighto"},{"sloped_curb":"both","uid":"12293","id":"3163401070","lon":"-43.1929102","highway":"crossing","lat":"-22.9543456","version":"1","visible":"true","crossing":"traffic_signals","timestamp":"2014-11-02T19:05:43Z","changeset":"26510698","user":"Nighto"},{"uid":"12293","id":"3163401071","lon":"-43.1929260","highway":"traffic_signals","lat":"-22.9543060","version":"1","visible":"true","timestamp":"2014-11-02T19:05:43Z","changeset":"26510698","user":"Nighto"},{"sloped_curb":"both","uid":"12293","id":"3163401074","lon":"-43.1928411","highway":"crossing","lat":"-22.9545246","version":"1","visible":"true","crossing":"traffic_signals","timestamp":"2014-11-02T19:05:43Z","changeset":"26510698","user":"Nighto"},{"capacity":"12","ref":"92","uid":"12293","name":"Pinheiro Guimar\u00e3es","amenity":"bicycle_rental","id":"3267452374","lon":"-43.1962051","operator":"Serttel","lat":"-22.9587825","network":"BikeRio","version":"1","visible":"true","timestamp":"2015-01-03T17:46:55Z","changeset":"27891982","user":"Nighto"},{"oneway":"yes","uid":"481662","name":"Rua Macedo Sobrinho","id":"14521489","highway":"tertiary","version":"11","visible":"true","timestamp":"2013-03-24T05:05:12Z","changeset":"15473639","user":"Geaquinto"},{"oneway":"no","uid":"481662","name":"Rua Macedo Sobrinho","id":"14522260","highway":"residential","version":"13","visible":"true","timestamp":"2013-03-24T05:05:48Z","changeset":"15473639","user":"Geaquinto"},{"lanes":"1","oneway":"yes","uid":"12293","name":"Rua Capit\u00e3o Salom\u00e3o","parking:condition:both":"period","parking:lane:right":"parallel","lit":"yes","source":"survey","parking:lane:left":"diagonal","id":"15041899","highway":"residential","note:pt":"Rio Rotativo 4h Mo-Fr 07:00-19:00; Sa 07-00:13:00; Rio Rotativo \u00danico Mo-Fr 19:00-02:00; Sa 13:00-02:00; Su 07:00-02:00","version":"7","visible":"true","timestamp":"2013-05-27T23:12:40Z","changeset":"16317151","user":"Nighto","surface":"asphalt"},{"oneway":"yes","uid":"463504","name":"Rua Conde de Iraj\u00e1","id":"15041687","highway":"residential","version":"9","visible":"true","timestamp":"2014-03-10T20:02:28Z","changeset":"21033116","user":"erickdeoliveiraleal"},{"IPP:Fonte":"www.rio.rj.gov.br\/ipp\/ - IPP\/DPE- SMAC","cycleway":"track","uid":"12293","name":"Lagoa\/Botafogo","source":"Yahoo;survey;IPP","id":"27293483","highway":"cycleway","IPP:Codigo":"21","version":"12","visible":"true","timestamp":"2012-07-25T16:57:20Z","changeset":"12489282","user":"Nighto"},{"IPP:Fonte":"www.rio.rj.gov.br\/ipp\/ - IPP\/DPE- SMAC","cycleway":"track","uid":"289524","name":"Lagoa\/Botafogo","source":"Yahoo;survey;IPP","id":"27293475","highway":"cycleway","IPP:Codigo":"21","version":"5","visible":"true","timestamp":"2010-07-18T17:52:28Z","changeset":"5253709","user":"Import Rio"},{"alt_name":"Espa\u00e7o Cultural S\u00e9rgio Porto","email":"projeto.entre@gmail.com","building":"yes","addr:suburb":"Humait\u00e1","phone":"+55 21 2535 3846","uid":"1772368","addr:street":"Rua Humait\u00e1","name":"Espa\u00e7o Cultural Municipal S\u00e9rgio Porto","amenity":"theatre","id":"325505764","addr:housenumber":"163","operator":"Projeto Entre","website":"http:\/\/entresergioporto.com\/","addr:city":"Rio de Janeiro","version":"1","visible":"true","timestamp":"2015-01-30T19:56:13Z","changeset":"28511788","user":"pizzaiolo"},{"IPP:CodFavela":"27","uid":"463504","name":"Mangueira (RA - Botafogo)","source":"IPP","landuse":"residential","id":"87101141","version":"2","visible":"true","timestamp":"2014-03-10T20:02:05Z","changeset":"21033116","user":"erickdeoliveiraleal"},{"oneway":"yes","uid":"77466","name":"Rua Conde de Iraj\u00e1","id":"104999482","highway":"residential","version":"1","visible":"true","timestamp":"2011-03-20T14:13:29Z","changeset":"7616940","user":"hanskruger"},{"oneway":"yes","uid":"463504","name":"Rua Visconde de Silva","id":"14522574","highway":"tertiary","version":"16","visible":"true","timestamp":"2014-03-10T20:02:46Z","changeset":"21033116","user":"erickdeoliveiraleal"},{"highway":"residential","name":"Rua Casuarina","id":"55601549","visible":"true","version":"7","changeset":"21033116","timestamp":"2014-03-10T20:02:27Z","user":"erickdeoliveiraleal","uid":"463504"},{"uid":"77466","name":"Ladeira dos Tabajaras","old_name":"Ladeira do Barroso","id":"105181614","highway":"living_street","version":"1","visible":"true","timestamp":"2011-03-21T16:16:49Z","changeset":"7628746","user":"hanskruger"},{"highway":"residential","id":"42161334","visible":"true","version":"2","changeset":"7628746","timestamp":"2011-03-21T16:16:54Z","user":"hanskruger","uid":"77466"},{"uid":"12293","name":"Rua Principado de M\u00f4naco","source":"Bing","id":"95852494","highway":"living_street","access":"private","version":"2","visible":"true","timestamp":"2014-11-19T19:44:12Z","changeset":"26893963","user":"Nighto"},{"highway":"residential","name":"Rua Anibal Reis","id":"144318305","visible":"true","version":"1","changeset":"10304947","timestamp":"2012-01-05T20:14:02Z","user":"hanskruger","uid":"77466"},{"highway":"residential","name":"Rua Diniz Cordeiro","id":"144318306","visible":"true","version":"1","changeset":"10304947","timestamp":"2012-01-05T20:14:02Z","user":"hanskruger","uid":"77466"},{"oneway":"yes","uid":"77466","name":"Rua General Corn\u00e9lio de Barros","id":"104999470","highway":"residential","version":"3","visible":"true","timestamp":"2012-01-05T20:14:02Z","changeset":"10304947","user":"hanskruger"},{"oneway":"yes","uid":"463504","name":"Rua Pinheiro Guimar\u00e3es","id":"180212412","highway":"tertiary","version":"6","visible":"true","timestamp":"2014-03-10T20:02:42Z","changeset":"21033116","user":"erickdeoliveiraleal"},{"highway":"tertiary_link","oneway":"yes","id":"180212411","visible":"true","version":"3","changeset":"17449518","timestamp":"2013-08-22T04:03:14Z","user":"Nighto","uid":"12293"},{"oneway":"yes","uid":"12293","name":"Rua Real Grandeza","id":"14519991","highway":"tertiary","version":"20","visible":"true","timestamp":"2014-11-02T19:05:44Z","changeset":"26510698","user":"Nighto"},{"oneway":"yes","uid":"149876","name":"Rua General Dion\u00edsio","id":"15041880","highway":"residential","version":"3","visible":"true","timestamp":"2012-12-02T21:52:55Z","changeset":"14131818","user":"dbusse"},{"oneway":"yes","uid":"149876","name":"Rua Maria Eug\u00eania","id":"30967834","highway":"residential","version":"3","visible":"true","timestamp":"2012-12-02T21:52:56Z","changeset":"14131818","user":"dbusse"},{"oneway":"no","uid":"149876","name":"Rua Visconde de Caravelas","id":"15041953","highway":"residential","version":"3","visible":"true","timestamp":"2012-12-02T21:52:57Z","changeset":"14131818","user":"dbusse"},{"oneway":"yes","uid":"82797","name":"Rua Vit\u00f3rio da Costa","id":"30931554","highway":"residential","version":"7","visible":"true","timestamp":"2014-07-27T20:29:41Z","changeset":"24391401","user":"Thundercel"},{"building":"school","id":"30783623","visible":"true","version":"4","changeset":"27849560","timestamp":"2015-01-01T21:24:29Z","user":"nandachuva","uid":"2533287"},{"lanes":"3","oneway":"yes","uid":"12293","name":"Rua Humait\u00e1","lit":"yes","source":"survey","id":"225172127","highway":"secondary","version":"1","visible":"true","timestamp":"2013-06-10T20:59:13Z","changeset":"16502171","user":"Nighto","surface":"asphalt"},{"building":"yes","uid":"2533287","name":"BR","amenity":"fuel","source":"survey","id":"225172288","operator":"Petrobras","version":"2","visible":"true","timestamp":"2015-01-01T21:24:28Z","changeset":"27849560","user":"nandachuva"},{"oneway":"yes","uid":"12293","name":"Rua Visconde de Silva","id":"225172128","highway":"tertiary","version":"1","visible":"true","timestamp":"2013-06-10T20:59:16Z","changeset":"16502171","user":"Nighto"},{"power":"substation","id":"194963000","visible":"true","version":"2","changeset":"21106799","timestamp":"2014-03-14T21:02:36Z","user":"erickdeoliveiraleal","uid":"463504"},{"highway":"tertiary_link","oneway":"yes","id":"211849765","visible":"true","version":"3","changeset":"21033116","timestamp":"2014-03-10T20:03:06Z","user":"erickdeoliveiraleal","uid":"463504"},{"highway":"tertiary_link","oneway":"yes","id":"211849766","visible":"true","version":"2","changeset":"21033116","timestamp":"2014-03-10T20:03:09Z","user":"erickdeoliveiraleal","uid":"463504"},{"uid":"12293","name":"Largo do Ibam","source":"Bing; survey","leisure":"recreation_ground","id":"214380941","version":"1","visible":"true","timestamp":"2013-03-30T21:19:22Z","changeset":"15556665","user":"Nighto"},{"religion":"buddhist","building":"yes","uid":"267599","amenity":"place_of_worship","id":"255890102","version":"1","visible":"true","timestamp":"2014-01-09T11:11:55Z","changeset":"19897981","user":"Luis Bahiana"},{"building":"house","id":"255890616","visible":"true","version":"1","changeset":"19898041","timestamp":"2014-01-09T11:16:32Z","user":"Luis Bahiana","uid":"267599"},{"building":"house","id":"255890617","visible":"true","version":"1","changeset":"19898041","timestamp":"2014-01-09T11:16:32Z","user":"Luis Bahiana","uid":"267599"},{"building":"house","id":"255890618","visible":"true","version":"1","changeset":"19898041","timestamp":"2014-01-09T11:16:32Z","user":"Luis Bahiana","uid":"267599"},{"building":"house","id":"255890619","visible":"true","version":"1","changeset":"19898041","timestamp":"2014-01-09T11:16:32Z","user":"Luis Bahiana","uid":"267599"},{"building":"house","id":"255890620","visible":"true","version":"1","changeset":"19898041","timestamp":"2014-01-09T11:16:32Z","user":"Luis Bahiana","uid":"267599"},{"name":"Insituto Brasileiro de Administra\u00e7\u00e3o Municipal","building":"office","id":"255915098","visible":"true","version":"3","changeset":"27849560","timestamp":"2015-01-01T21:24:29Z","user":"nandachuva","uid":"2533287"},{"uid":"2533287","name":"Parque Municipal do Morro da Saudade","leaf_cycle":"evergreen","landuse":"conservation","id":"255915432","version":"8","visible":"true","timestamp":"2015-01-01T21:24:29Z","changeset":"27849560","user":"nandachuva"},{"oneway":"yes","uid":"69210","name":"Rua Humait\u00e1","id":"223353194","highway":"secondary","version":"8","visible":"true","timestamp":"2014-08-19T00:16:25Z","changeset":"24847031","user":"M\u00e1rcio V\u00edn\u00edcius Pinheiro"},{"oneway":"yes","uid":"1483068","name":"Rua Visconde de Caravelas","id":"15041764","highway":"residential","version":"6","visible":"true","timestamp":"2014-01-17T20:35:49Z","changeset":"20057270","user":"PauloCarvalhoRJ"},{"natural":"yes","id":"257374462","visible":"true","version":"3","changeset":"21106799","timestamp":"2014-03-14T21:02:37Z","user":"erickdeoliveiraleal","uid":"463504"},{"natural":"bare_rock","id":"257656853","visible":"true","version":"2","changeset":"21033116","timestamp":"2014-03-10T20:04:03Z","user":"erickdeoliveiraleal","uid":"463504"},{"natural":"bare_rock","id":"257656854","visible":"true","version":"2","changeset":"21033116","timestamp":"2014-03-10T20:04:03Z","user":"erickdeoliveiraleal","uid":"463504"},{"oneway":"yes","parking:lane:both":"no_parking","uid":"12293","lit":"yes","id":"258787481","highway":"service","version":"1","visible":"true","timestamp":"2014-01-28T17:27:46Z","changeset":"20250619","user":"Nighto","surface":"asphalt"},{"surface":"paved","highway":"footway","id":"261570306","visible":"true","version":"5","changeset":"24764783","timestamp":"2014-08-15T11:14:11Z","user":"Thiago Pv","uid":"502691"},{"highway":"footway","id":"261572384","visible":"true","version":"4","changeset":"21033116","timestamp":"2014-03-10T20:03:02Z","user":"erickdeoliveiraleal","uid":"463504"},{"surface":"asphalt","highway":"footway","id":"261573084","visible":"true","version":"2","changeset":"20563161","timestamp":"2014-02-14T17:42:00Z","user":"Luis Bahiana","uid":"267599"},{"uid":"463504","name":"Ladeira dos Tabajaras","old_name":"Ladeira do Barroso","id":"42161338","highway":"residential","version":"6","visible":"true","timestamp":"2014-03-10T20:02:01Z","changeset":"21033116","user":"erickdeoliveiraleal"},{"IPP:CodFavela":"825","uid":"463504","name":"Morro da Saudade","source":"IPP","landuse":"residential","id":"87101132","version":"2","visible":"true","timestamp":"2014-03-10T20:02:05Z","changeset":"21033116","user":"erickdeoliveiraleal"},{"uid":"463504","IPP:COD_QUADRA":"287C22286","source":"IPP","landuse":"residential","id":"61014577","IPP:CODIGO":"22286","version":"2","IPP:CADASTRAL":"287C","visible":"true","timestamp":"2014-03-10T20:03:13Z","changeset":"21033116","user":"erickdeoliveiraleal"},{"uid":"463504","IPP:COD_QUADRA":"287C22320","source":"IPP","landuse":"residential","id":"61014588","IPP:CODIGO":"22320","version":"2","IPP:CADASTRAL":"287C","visible":"true","timestamp":"2014-03-10T20:03:17Z","changeset":"21033116","user":"erickdeoliveiraleal"},{"uid":"463504","IPP:COD_QUADRA":"287C22319","source":"IPP","landuse":"residential","id":"61014566","IPP:CODIGO":"22319","version":"2","IPP:CADASTRAL":"287C","visible":"true","timestamp":"2014-03-10T20:03:21Z","changeset":"21033116","user":"erickdeoliveiraleal"},{"uid":"463504","IPP:COD_QUADRA":"287C22285","source":"IPP","landuse":"residential","id":"61014605","IPP:CODIGO":"22285","version":"2","IPP:CADASTRAL":"287C","visible":"true","timestamp":"2014-03-10T20:03:24Z","changeset":"21033116","user":"erickdeoliveiraleal"},{"uid":"463504","IPP:COD_QUADRA":"287C22366","source":"IPP","landuse":"residential","id":"61014596","IPP:CODIGO":"22366","version":"2","IPP:CADASTRAL":"287C","visible":"true","timestamp":"2014-03-10T20:03:29Z","changeset":"21033116","user":"erickdeoliveiraleal"},{"uid":"463504","IPP:COD_QUADRA":"287C22329","source":"IPP","landuse":"residential","id":"61014578","IPP:CODIGO":"22329","version":"2","IPP:CADASTRAL":"287C","visible":"true","timestamp":"2014-03-10T20:03:36Z","changeset":"21033116","user":"erickdeoliveiraleal"},{"uid":"463504","IPP:COD_QUADRA":"287C22321","source":"IPP","landuse":"residential","id":"61014607","IPP:CODIGO":"22321","version":"2","IPP:CADASTRAL":"287C","visible":"true","timestamp":"2014-03-10T20:03:36Z","changeset":"21033116","user":"erickdeoliveiraleal"},{"uid":"463504","IPP:COD_QUADRA":"287C22365","source":"IPP","landuse":"residential","id":"61014562","IPP:CODIGO":"22365","version":"2","IPP:CADASTRAL":"287C","visible":"true","timestamp":"2014-03-10T20:03:38Z","changeset":"21033116","user":"erickdeoliveiraleal"},{"building":"school","id":"319940644","visible":"true","version":"1","changeset":"27849560","timestamp":"2015-01-01T21:24:27Z","user":"nandachuva","uid":"2533287"},{"leisure":"sports_centre","building":"yes","id":"319940645","visible":"true","version":"1","changeset":"27849560","timestamp":"2015-01-01T21:24:27Z","user":"nandachuva","uid":"2533287"},{"amenity":"school","id":"319940646","visible":"true","version":"1","changeset":"27849560","timestamp":"2015-01-01T21:24:27Z","user":"nandachuva","uid":"2533287"},{"uid":"2533287","name":"Condom\u00ednio Parque Maria C\u00e2ndida Pareto","barrier":"wall","landuse":"residential","id":"319940647","access":"private","version":"1","visible":"true","timestamp":"2015-01-01T21:24:27Z","changeset":"27849560","user":"nandachuva"},{"building":"yes","uid":"2533287","name":"Audio Rebel","amenity":"studio","id":"319940648","version":"1","visible":"true","timestamp":"2015-01-01T21:24:27Z","changeset":"27849560","user":"nandachuva"}]